EYESAT A (AO-27)        
1 22825U 93061C   26156.46242272  .00000116  00000+0  61062-4 0  9993
2 22825  98.6882 223.8798 0009296 130.1900 230.0097 14.30939099705326
ITAMSAT (IO-26)         
1 22826U 93061D   26156.09581524  .00000110  00000+0  58344-4 0  9992
2 22826  98.6830 223.4296 0009997 116.5147 243.7062 14.31365384705580
RADIO ROSTO (RS15)      
1 23439U 94085A   26156.67508940 -.00000042  00000+0 -17083-6 0  9998
2 23439  64.8186 321.8348 0155597   6.0031 354.2712 11.27583592294605
JAS-2 (FO-29)           
1 24278U 96046B   26156.48148801 -.00000028  00000+0  47757-5 0  9997
2 24278  98.5250   6.9568 0350683 126.7306 236.6586 13.53273625471586
FORTE                   
1 24920U 97047A   26156.39658461  .00000179  00000+0  95106-4 0  9997
2 24920  69.9543  40.6533 0024440 291.6356  68.2163 14.27940357497000
TECHSAT 1B (GO-32)      
1 25397U 98043D   26156.47428677  .00000072  00000+0  51302-4 0  9998
2 25397  99.0065 148.9377 0000406 200.1436 159.9726 14.24426083449664
ISS (ZARYA)             
1 25544U 98067A   26156.64419214  .00008809  00000+0  16425-3 0  9996
2 25544  51.6330 357.2373 0007055 136.8284 223.3259 15.49619643569968
IMAGE                   
1 26113U 00017A   26152.26636047 -.00000099  00000+0 -18882-1 0  9998
2 26113  94.2162 315.1599 7443736 289.6105   8.6041  1.68666062161230
CLUSTER II-FM7 (SAMBA)  
1 26410U 00041A   26156.98399886  .00004453  00000+0  00000+0 0  9992
2 26410 149.8917  48.5803 9040965 265.6480   0.0292  0.44829937 20254
CLUSTER II-FM8 (TANGO)  
1 26464U 00045B   26154.93096890  .00009075  00000+0  00000+0 0  9992
2 26464 150.1347  49.2777 9042973 266.1813   3.2525  0.44411373 20255
ODIN                    
1 26702U 01007A   26156.07744653  .00138173  00000+0  10497-2 0  9996
2 26702  97.3851 196.2749 0006301 158.1180 202.0353 15.71871760387493
OMNI-M1                 
1 26857U 01026A   26156.25281149 -.00000011  00000+0  00000+0 0  9990
2 26857  44.8344 248.0153 0014380  52.0994 308.0825  3.92401553205101
PCSAT (NO-44)           
1 26931U 01043C   26156.56496487  .00000150  00000+0  87024-4 0  9998
2 26931  67.0513 274.3313 0006118 264.0547  95.9858 14.31951869288786
PROBA-1                 
1 26958U 01049B   26156.71966295  .00001439  00000+0  96353-4 0  9995
2 26958  97.9595 164.8527 0055388 160.1023 200.2382 15.07441262341895
SAUDISAT 1C (SO-50)     
1 27607U 02058C   26156.35454122  .00001035  00000+0  13927-3 0  9996
2 27607  64.5503 165.5947 0075495 264.6340  94.6150 14.83020070262706
CORIOLIS                
1 27640U 03001A   26156.42950640  .00000111  00000+0  72598-4 0  9990
2 27640  98.7127 163.4938 0012886 244.9192 115.0647 14.19941605212554
CUTE-1 (CO-55)          
1 27844U 03031E   26154.54951729  .00000336  00000+0  16425-3 0  9994
2 27844  98.6736 163.2800 0008690 219.4250 140.6297 14.24327019189732
CUBESAT XI-IV (CO-57)   
1 27848U 03031J   26156.28822976  .00000257  00000+0  13217-3 0  9990
2 27848  98.6767 164.7189 0008404 234.4870 125.5525 14.23614275189686
MOZHAETS 4 (RS22)       
1 27939U 03042A   26156.74839424  .00000617  00000+0  10343-3 0  9997
2 27939  98.3467 340.7841 0010313 310.4951 178.3494 14.73445231213867
